[{"OBJECT_NAME":"KINEIS-4D","OBJECT_ID":"2025-056C","EPOCH":"2026-03-09T21:47:10.964256","MEAN_MOTION":14.72298157,"ECCENTRICITY":4.628e-5,"INCLINATION":97.992,"RA_OF_ASC_NODE":195.3531,"ARG_OF_PERICENTER":272.0522,"MEAN_ANOMALY":88.0633,"EPHEMERIS_TYPE":0,"CLASSIFICATION_TYPE":"U","NORAD_CAT_ID":63302,"ELEMENT_SET_NO":999,"REV_AT_EPOCH":5252,"BSTAR":0.00050100773,"MEAN_MOTION_DOT":3.118e-5,"MEAN_MOTION_DDOT":0},{"OBJECT_NAME":"CZ-6A DEB","OBJECT_ID":"2022-151UL","EPOCH":"2026-03-09T16:00:40.448448","MEAN_MOTION":14.58951823,"ECCENTRICITY":0.00713555,"INCLINATION":98.6438,"RA_OF_ASC_NODE":125.0739,"ARG_OF_PERICENTER":248.2087,"MEAN_ANOMALY":111.1508,"EPHEMERIS_TYPE":0,"CLASSIFICATION_TYPE":"U","NORAD_CAT_ID":54995,"ELEMENT_SET_NO":999,"REV_AT_EPOCH":10351,"BSTAR":0.0016739697,"MEAN_MOTION_DOT":8.087e-5,"MEAN_MOTION_DDOT":0}]
